STARLINK-35726          
1 66280U 25247R   25330.83334491  .00089539  00000+0  22267-2 0  9994
2 66280  53.1586 312.3334 0001512  87.0521 203.3834 15.39558429  5068
STARLINK-35727          
1 66281U 25247S   25330.83334491  .00115964  00000+0  28746-2 0  9995
2 66281  53.1596 312.2338 0001993  91.5085 248.5437 15.39519604  5063
STARLINK-35776          
1 66282U 25247T   25330.83334491  .00114213  00000+0  28322-2 0  9992
2 66282  53.1596 312.2299 0001887  93.0793 248.8375 15.39517253  5067
STARLINK-35774          
1 66283U 25247U   25330.83334491 -.02308063  00000+0 -59457-1 0  9997
2 66283  53.1595 312.1866 0000928  79.6364 283.9814 15.42120697  5069
STARLINK-35830          
1 66284U 25247V   25330.83334491 -.02308431  00000+0 -59478-1 0  9990
2 66284  53.1596 312.1822 0000856  79.5377 285.9548 15.42115760  5067
STARLINK-35819          
1 66285U 25247W   25330.83334491 -.02011921  00000+0 -47516-1 0  9996
2 66285  53.1593 312.1520 0001030 104.2989 276.6557 15.44757794  5013
STARLINK-35783          
1 66286U 25247X   25330.24741590 -.00031927  00000+0 -58353-3 0  9993
2 66286  53.1592 314.9349 0000703  53.1047 307.0026 15.48562020  5150
STARLINK-34884          
1 66287U 25247Y   25330.56947564 -.00120193  00000+0 -22062-2 0  9999
2 66287  53.1594 313.3900 0004405  44.8567 315.2797 15.49038226  5205
STARLINK-34896          
1 66288U 25247Z   25330.50457913  .00031812  00000+0  57819-3 0  9994
2 66288  53.1594 313.6959 0001429 161.4833 198.6228 15.49284370  5191
STARLINK-35802          
1 66289U 25247AA  25330.82677541  .00142535  00000+0  25204-2 0  9998
2 66289  53.1594 312.1519 0001015  70.8619 289.2500 15.49353107  5245
STARLINK-35799          
1 66290U 25247AB  25330.37486873  .00083946  00000+0  14982-2 0  9997
2 66290  53.1602 314.3078 0000280  34.4635 325.6392 15.49367369  5225
STARLINK-35800          
1 66291U 25247AC  25330.82574556  .00116525  00000+0  20706-2 0  9995
2 66291  53.1593 312.1445 0001220  76.4300 283.6845 15.49329354  5294
