CCSDS_OMM_VERS = 2.0
CREATION_DATE  = 
ORIGINATOR     = 

OBJECT_NAME    = STARLINK-35726
OBJECT_ID      = 2025-247R
CENTER_NAME    = EARTH
REF_FRAME      = TEME
TIME_SYSTEM    = UTC
MEAN_ELEMENT_THEORY = SGP/SGP4

EPOCH          = 2025-11-26T20:00:01.000224
MEAN_MOTION    = 15.39558429
ECCENTRICITY   = .0001512
INCLINATION    = 53.1586
RA_OF_ASC_NODE = 312.3334
ARG_OF_PERICENTER = 87.0521
MEAN_ANOMALY   = 203.3834

EPHEMERIS_TYPE = 0
CLASSIFICATION_TYPE = U
NORAD_CAT_ID   = 66280
ELEMENT_SET_NO = 999
REV_AT_EPOCH   = 506
BSTAR          = .22267E-2
MEAN_MOTION_DOT = .89539E-3
MEAN_MOTION_DDOT = 0

CCSDS_OMM_VERS = 2.0
CREATION_DATE  = 
ORIGINATOR     = 

OBJECT_NAME    = STARLINK-35727
OBJECT_ID      = 2025-247S
CENTER_NAME    = EARTH
REF_FRAME      = TEME
TIME_SYSTEM    = UTC
MEAN_ELEMENT_THEORY = SGP/SGP4

EPOCH          = 2025-11-26T20:00:01.000224
MEAN_MOTION    = 15.39519604
ECCENTRICITY   = .0001993
INCLINATION    = 53.1596
RA_OF_ASC_NODE = 312.2338
ARG_OF_PERICENTER = 91.5085
MEAN_ANOMALY   = 248.5437

EPHEMERIS_TYPE = 0
CLASSIFICATION_TYPE = U
NORAD_CAT_ID   = 66281
ELEMENT_SET_NO = 999
REV_AT_EPOCH   = 506
BSTAR          = .28746E-2
MEAN_MOTION_DOT = .115964E-2
MEAN_MOTION_DDOT = 0

CCSDS_OMM_VERS = 2.0
CREATION_DATE  = 
ORIGINATOR     = 

OBJECT_NAME    = STARLINK-35776
OBJECT_ID      = 2025-247T
CENTER_NAME    = EARTH
REF_FRAME      = TEME
TIME_SYSTEM    = UTC
MEAN_ELEMENT_THEORY = SGP/SGP4

EPOCH          = 2025-11-26T20:00:01.000224
MEAN_MOTION    = 15.39517253
ECCENTRICITY   = .0001887
INCLINATION    = 53.1596
RA_OF_ASC_NODE = 312.2299
ARG_OF_PERICENTER = 93.0793
MEAN_ANOMALY   = 248.8375

EPHEMERIS_TYPE = 0
CLASSIFICATION_TYPE = U
NORAD_CAT_ID   = 66282
ELEMENT_SET_NO = 999
REV_AT_EPOCH   = 506
BSTAR          = .28322E-2
MEAN_MOTION_DOT = .114213E-2
MEAN_MOTION_DDOT = 0

CCSDS_OMM_VERS = 2.0
CREATION_DATE  = 
ORIGINATOR     = 

OBJECT_NAME    = STARLINK-35774
OBJECT_ID      = 2025-247U
CENTER_NAME    = EARTH
REF_FRAME      = TEME
TIME_SYSTEM    = UTC
MEAN_ELEMENT_THEORY = SGP/SGP4

EPOCH          = 2025-11-26T20:00:01.000224
MEAN_MOTION    = 15.42120697
ECCENTRICITY   = .0000928
INCLINATION    = 53.1595
RA_OF_ASC_NODE = 312.1866
ARG_OF_PERICENTER = 79.6364
MEAN_ANOMALY   = 283.9814

EPHEMERIS_TYPE = 0
CLASSIFICATION_TYPE = U
NORAD_CAT_ID   = 66283
ELEMENT_SET_NO = 999
REV_AT_EPOCH   = 506
BSTAR          = -.59457E-1
MEAN_MOTION_DOT = -.2308063E-1
MEAN_MOTION_DDOT = 0

CCSDS_OMM_VERS = 2.0
CREATION_DATE  = 
ORIGINATOR     = 

OBJECT_NAME    = STARLINK-35830
OBJECT_ID      = 2025-247V
CENTER_NAME    = EARTH
REF_FRAME      = TEME
TIME_SYSTEM    = UTC
MEAN_ELEMENT_THEORY = SGP/SGP4

EPOCH          = 2025-11-26T20:00:01.000224
MEAN_MOTION    = 15.42115760
ECCENTRICITY   = .0000856
INCLINATION    = 53.1596
RA_OF_ASC_NODE = 312.1822
ARG_OF_PERICENTER = 79.5377
MEAN_ANOMALY   = 285.9548

EPHEMERIS_TYPE = 0
CLASSIFICATION_TYPE = U
NORAD_CAT_ID   = 66284
ELEMENT_SET_NO = 999
REV_AT_EPOCH   = 506
BSTAR          = -.59478E-1
MEAN_MOTION_DOT = -.2308431E-1
MEAN_MOTION_DDOT = 0

CCSDS_OMM_VERS = 2.0
CREATION_DATE  = 
ORIGINATOR     = 

OBJECT_NAME    = STARLINK-35819
OBJECT_ID      = 2025-247W
CENTER_NAME    = EARTH
REF_FRAME      = TEME
TIME_SYSTEM    = UTC
MEAN_ELEMENT_THEORY = SGP/SGP4

EPOCH          = 2025-11-26T20:00:01.000224
MEAN_MOTION    = 15.44757794
ECCENTRICITY   = .000103
INCLINATION    = 53.1593
RA_OF_ASC_NODE = 312.1520
ARG_OF_PERICENTER = 104.2989
MEAN_ANOMALY   = 276.6557

EPHEMERIS_TYPE = 0
CLASSIFICATION_TYPE = U
NORAD_CAT_ID   = 66285
ELEMENT_SET_NO = 999
REV_AT_EPOCH   = 501
BSTAR          = -.47516E-1
MEAN_MOTION_DOT = -.2011921E-1
MEAN_MOTION_DDOT = 0

CCSDS_OMM_VERS = 2.0
CREATION_DATE  = 
ORIGINATOR     = 

OBJECT_NAME    = STARLINK-35783
OBJECT_ID      = 2025-247X
CENTER_NAME    = EARTH
REF_FRAME      = TEME
TIME_SYSTEM    = UTC
MEAN_ELEMENT_THEORY = SGP/SGP4

EPOCH          = 2025-11-26T05:56:16.733760
MEAN_MOTION    = 15.48562020
ECCENTRICITY   = .00007032
INCLINATION    = 53.1592
RA_OF_ASC_NODE = 314.9349
ARG_OF_PERICENTER = 53.1047
MEAN_ANOMALY   = 307.0026

EPHEMERIS_TYPE = 0
CLASSIFICATION_TYPE = U
NORAD_CAT_ID   = 66286
ELEMENT_SET_NO = 999
REV_AT_EPOCH   = 515
BSTAR          = -.58352516E-3
MEAN_MOTION_DOT = -.31927E-3
MEAN_MOTION_DDOT = 0

CCSDS_OMM_VERS = 2.0
CREATION_DATE  = 
ORIGINATOR     = 

OBJECT_NAME    = STARLINK-34884
OBJECT_ID      = 2025-247Y
CENTER_NAME    = EARTH
REF_FRAME      = TEME
TIME_SYSTEM    = UTC
MEAN_ELEMENT_THEORY = SGP/SGP4

EPOCH          = 2025-11-26T13:40:02.695296
MEAN_MOTION    = 15.49038226
ECCENTRICITY   = .0004405
INCLINATION    = 53.1594
RA_OF_ASC_NODE = 313.3900
ARG_OF_PERICENTER = 44.8567
MEAN_ANOMALY   = 315.2797

EPHEMERIS_TYPE = 0
CLASSIFICATION_TYPE = U
NORAD_CAT_ID   = 66287
ELEMENT_SET_NO = 999
REV_AT_EPOCH   = 520
BSTAR          = -.22062E-2
MEAN_MOTION_DOT = -.120193E-2
MEAN_MOTION_DDOT = 0

CCSDS_OMM_VERS = 2.0
CREATION_DATE  = 
ORIGINATOR     = 

OBJECT_NAME    = STARLINK-34896
OBJECT_ID      = 2025-247Z
CENTER_NAME    = EARTH
REF_FRAME      = TEME
TIME_SYSTEM    = UTC
MEAN_ELEMENT_THEORY = SGP/SGP4

EPOCH          = 2025-11-26T12:06:35.636832
MEAN_MOTION    = 15.49284370
ECCENTRICITY   = .0001429
INCLINATION    = 53.1594
RA_OF_ASC_NODE = 313.6959
ARG_OF_PERICENTER = 161.4833
MEAN_ANOMALY   = 198.6228

EPHEMERIS_TYPE = 0
CLASSIFICATION_TYPE = U
NORAD_CAT_ID   = 66288
ELEMENT_SET_NO = 999
REV_AT_EPOCH   = 519
BSTAR          = .57819E-3
MEAN_MOTION_DOT = .31812E-3
MEAN_MOTION_DDOT = 0

CCSDS_OMM_VERS = 2.0
CREATION_DATE  = 
ORIGINATOR     = 

OBJECT_NAME    = STARLINK-35802
OBJECT_ID      = 2025-247AA
CENTER_NAME    = EARTH
REF_FRAME      = TEME
TIME_SYSTEM    = UTC
MEAN_ELEMENT_THEORY = SGP/SGP4

EPOCH          = 2025-11-26T19:50:33.395424
MEAN_MOTION    = 15.49353107
ECCENTRICITY   = .0001015
INCLINATION    = 53.1594
RA_OF_ASC_NODE = 312.1519
ARG_OF_PERICENTER = 70.8619
MEAN_ANOMALY   = 289.2500

EPHEMERIS_TYPE = 0
CLASSIFICATION_TYPE = U
NORAD_CAT_ID   = 66289
ELEMENT_SET_NO = 999
REV_AT_EPOCH   = 524
BSTAR          = .25204E-2
MEAN_MOTION_DOT = .142535E-2
MEAN_MOTION_DDOT = 0

CCSDS_OMM_VERS = 2.0
CREATION_DATE  = 
ORIGINATOR     = 

OBJECT_NAME    = STARLINK-35799
OBJECT_ID      = 2025-247AB
CENTER_NAME    = EARTH
REF_FRAME      = TEME
TIME_SYSTEM    = UTC
MEAN_ELEMENT_THEORY = SGP/SGP4

EPOCH          = 2025-11-26T08:59:48.658272
MEAN_MOTION    = 15.49367369
ECCENTRICITY   = .00002806
INCLINATION    = 53.1602
RA_OF_ASC_NODE = 314.3078
ARG_OF_PERICENTER = 34.4635
MEAN_ANOMALY   = 325.6392

EPHEMERIS_TYPE = 0
CLASSIFICATION_TYPE = U
NORAD_CAT_ID   = 66290
ELEMENT_SET_NO = 999
REV_AT_EPOCH   = 522
BSTAR          = .14981515E-2
MEAN_MOTION_DOT = .83946E-3
MEAN_MOTION_DDOT = 0

CCSDS_OMM_VERS = 2.0
CREATION_DATE  = 
ORIGINATOR     = 

OBJECT_NAME    = STARLINK-35800
OBJECT_ID      = 2025-247AC
CENTER_NAME    = EARTH
REF_FRAME      = TEME
TIME_SYSTEM    = UTC
MEAN_ELEMENT_THEORY = SGP/SGP4

EPOCH          = 2025-11-26T19:49:04.416384
MEAN_MOTION    = 15.49329354
ECCENTRICITY   = .000122
INCLINATION    = 53.1593
RA_OF_ASC_NODE = 312.1445
ARG_OF_PERICENTER = 76.4300
MEAN_ANOMALY   = 283.6845

EPHEMERIS_TYPE = 0
CLASSIFICATION_TYPE = U
NORAD_CAT_ID   = 66291
ELEMENT_SET_NO = 999
REV_AT_EPOCH   = 529
BSTAR          = .20706E-2
MEAN_MOTION_DOT = .116525E-2
MEAN_MOTION_DDOT = 0

